OBJECT_NAME,OBJECT_ID,EPOCH,MEAN_MOTION,ECCENTRICITY,INCLINATION,RA_OF_ASC_NODE,ARG_OF_PERICENTER,MEAN_ANOMALY,EPHEMERIS_TYPE,CLASSIFICATION_TYPE,NORAD_CAT_ID,ELEMENT_SET_NO,REV_AT_EPOCH,BSTAR,MEAN_MOTION_DOT,MEAN_MOTION_DDOT
GLOBALSTAR M069,2007-020C,2026-06-09T12:23:53.140128,12.23470935,.0002493,52.0041,273.8373,132.3796,310.6592,0,U,31573,999,87786,-.20071E-4,-.95E-6,0
GLOBALSTAR M072,2007-020D,2026-06-09T03:45:26.866944,11.91658476,.00013863,51.9912,121.6245,309.6353,68.2651,0,U,31574,999,87402,.21105561E-3,-.69E-6,0
GLOBALSTAR M066,2007-048C,2026-06-09T05:16:41.826720,12.30388506,.0005349,51.9592,80.7833,27.0371,140.0303,0,U,32265,999,85924,-.32513E-3,-.133E-5,0
GLOBALSTAR M079,2010-054A,2026-06-09T04:59:59.822592,12.62265983,.00005163,52.0018,132.9579,3.1477,14.7880,0,U,37188,999,72154,.81140195E-4,-.89E-6,0
GLOBALSTAR M074,2010-054B,2026-06-09T05:38:05.640000,12.62268424,.0000367,51.9995,132.1436,45.3710,333.0078,0,U,37189,999,72215,.54346E-4,-.94E-6,0
GLOBALSTAR M076,2010-054C,2026-06-09T04:21:58.150656,12.62261827,.0000561,52.0008,132.5067,33.0301,345.2723,0,U,37190,999,72186,.53985364E-4,-.94E-6,0
GLOBALSTAR M077,2010-054D,2026-06-09T09:46:22.283904,11.67547589,.0002857,51.9930,199.0437,158.6106,219.8404,0,U,37191,999,72023,.71244E-4,-.74E-6,0
GLOBALSTAR M075,2010-054E,2026-06-09T08:57:03.578112,12.62267348,.0000034,51.9919,173.9859,137.3229,329.2254,0,U,37192,999,72095,.69333E-4,-.91E-6,0
GLOBALSTAR M073,2010-054F,2026-06-09T03:15:28.480320,12.62262133,.00007628,52.0060,88.8003,31.5254,75.2287,0,U,37193,999,72291,.15733458E-4,-.101E-5,0
GLOBALSTAR M083,2011-033A,2026-06-09T09:38:08.272032,12.62262946,.0000843,51.9872,36.2311,55.6570,120.6525,0,U,37739,999,69196,.19829E-4,-.1E-5,0
GLOBALSTAR M088,2011-033B,2026-06-09T03:18:24.916896,12.62268590,.0000832,52.0228,303.4440,114.3972,61.2941,0,U,37740,999,68747,.63951175E-4,-.92E-6,0
GLOBALSTAR M091,2011-033C,2026-06-09T10:41:47.438016,12.62263769,.0000499,52.0003,265.4836,139.8669,296.7250,0,U,37741,999,68830,.37985E-4,-.97E-6,0
GLOBALSTAR M085,2011-033D,2026-06-09T10:04:25.008096,12.62263945,.0000182,52.0110,216.8484,190.0031,188.6885,0,U,37742,999,68881,.56722E-4,-.94E-6,0
GLOBALSTAR M081,2011-033E,2026-06-09T11:08:59.115840,12.62264813,.0000217,51.9940,219.1569,129.5643,332.5715,0,U,37743,999,68896,.45147E-4,-.96E-6,0
GLOBALSTAR M089,2011-033F,2026-06-09T07:51:18.796896,12.62267045,.0000361,51.9904,173.7346,101.1506,277.7004,0,U,37744,999,68979,.12193E-3,-.82E-6,0
GLOBALSTAR M084,2011-080A,2026-06-09T10:54:01.565856,12.62267505,.0001034,52.0027,40.8240,74.1372,101.5231,0,U,38040,999,66778,-.31317E-5,-.104E-5,0
GLOBALSTAR M080,2011-080B,2026-06-09T10:12:50.996736,12.62269275,.0000302,52.0076,42.6265,68.2717,107.3876,0,U,38041,999,66790,.35377E-5,-.103E-5,0
GLOBALSTAR M082,2011-080C,2026-06-09T06:46:56.468064,12.62269894,.0000541,52.0097,358.5617,87.7473,87.9649,0,U,38042,999,66859,.54641E-4,-.94E-6,0
GLOBALSTAR M092,2011-080D,2026-06-09T01:31:32.558592,12.62266890,.00005517,52.0085,89.6245,52.5106,326.4006,0,U,38043,999,66702,.52142206E-4,-.94E-6,0
GLOBALSTAR M090,2011-080E,2026-06-08T17:37:03.329184,12.62269016,.00008032,52.0144,354.1848,80.8408,359.9677,0,U,38044,999,66864,.74583781E-4,-.9E-6,0
GLOBALSTAR M086,2011-080F,2026-06-09T06:01:29.822304,12.62286591,.0001638,51.9914,352.5542,53.5584,118.0501,0,U,38045,999,66865,.1028E-3,-.85E-6,0
GLOBALSTAR M097,2013-005A,2026-06-09T11:33:56.961792,12.62247113,.0000444,52.0053,266.7916,122.6191,237.4718,0,U,39072,999,61593,-.45752E-4,-.112E-5,0
GLOBALSTAR M093,2013-005B,2026-06-09T12:49:33.932064,12.62265753,.0000308,52.0109,259.9758,106.8967,253.1934,0,U,39073,999,61589,.47141E-4,-.95E-6,0
GLOBALSTAR M094,2013-005C,2026-06-09T07:07:22.370016,12.62268549,.0000211,51.9929,174.8235,337.2221,22.8636,0,U,39074,999,61747,.79788E-4,-.89E-6,0
GLOBALSTAR M096,2013-005D,2026-06-09T11:14:47.910048,12.62265414,.0000171,52.0059,223.0966,165.8515,194.2356,0,U,39075,999,61641,.56147E-4,-.94E-6,0
GLOBALSTAR M078,2013-005E,2026-06-09T02:59:46.993344,12.62259231,.00005875,51.9893,308.1620,197.5024,162.5822,0,U,39076,999,61499,-.28607204E-3,-.155E-5,0
GLOBALSTAR M095,2013-005F,2026-06-09T03:38:20.290272,12.62263356,.00003744,52.0095,305.6732,122.4421,237.6482,0,U,39077,999,61485,.38663269E-4,-.97E-6,0
GLOBALSTAR M087,2022-064A,2026-06-09T02:03:25.986816,12.62268960,.00005917,51.9997,87.1163,19.9401,340.1489,0,U,52888,999,19011,.58462702E-4,-.93E-6,0
